ASTRA 1N                
1 37775U 11041A   26166.33407116  .00000123  00000+0  00000+0 0  9996
2 37775   0.0936  44.5742 0005992  50.2444 308.2647  1.00270544 44505
BSAT-3C (JCSAT-110R)    
1 37776U 11041B   26166.49466227 -.00000348  00000+0  00000+0 0  9992
2 37776   0.0177  11.3150 0000051 199.0075 341.4931  1.00271033 50451
PAKSAT-1R               
1 37779U 11042A   26166.19528161  .00000157  00000+0  00000+0 0  9996
2 37779   0.6840  84.6155 0003233 335.5417 311.6958  1.00265000 54456
SES-2                   
1 37809U 11049A   26166.45564498 -.00000193  00000+0  00000+0 0  9990
2 37809   0.0597 101.3702 0002614 342.1507 257.2520  1.00270576 53941
ARABSAT-5C              
1 37810U 11049B   26166.33424448  .00000127  00000+0  00000+0 0  9995
2 37810   0.0507  13.1201 0003401  88.8161 301.9994  1.00270923 54010
EUTELSAT 7 WEST A       
1 37816U 11051A   26166.40016154 -.00000057  00000+0  00000+0 0  9996
2 37816   0.0631  10.9232 0004014  85.1793 304.3181  1.00271158 53852
QUETZSAT 1              
1 37826U 11054A   26166.45763831 -.00000239  00000+0  00000+0 0  9998
2 37826   0.0200  32.9592 0002496  53.5466 264.9909  1.00270669 49856
INTELSAT 18 (IS-18)     
1 37834U 11056A   26166.50322515  .00000055  00000+0  00000+0 0  9990
2 37834   0.0133 300.2965 0001552 142.3543 182.2943  1.00271138 53790
EUTELSAT 16A            
1 37836U 11057A   26166.33346448  .00000108  00000+0  00000+0 0  9994
2 37836   0.0455  15.6724 0005974  71.6876 312.3061  1.00273576  7316
VIASAT-1                
1 37843U 11059A   26166.01642035 -.00000019  00000+0  00000+0 0  9992
2 37843   0.0175 336.5077 0002021 105.2509  72.3583  1.00271822 47303
ASIASAT 7               
1 37933U 11069A   26166.42252164 -.00000331  00000+0  00000+0 0  9995
2 37933   0.0279  74.0232 0001198 340.8991 106.4069  1.00272506 44845
BEIDOU-2 IGSO-5         
1 37948U 11073A   26165.98069916 -.00000164  00000+0  00000+0 0  9991
2 37948  47.6824 271.5735 0113900 221.6334 214.8644  1.00273141 53117
LUCH-5A                 
1 37951U 11074B   26166.50878299 -.00000054  00000+0  00000+0 0  9995
2 37951   8.7499  73.8320 0002163  22.2945 157.7802  1.00270016 53031
NIGCOMSAT 1R            
1 38014U 11077A   26166.26742125  .00000149  00000+0  00000+0 0  9994
2 38014   0.0449 128.6600 0002714 219.4482  54.2192  1.00268624 52933
WGS F4 (USA 233)        
1 38070U 12003A   26166.49040426  .00000000  00000+0  00000+0 0  9992
2 38070   0.0237  14.9956 0000826 275.8846 237.8482  1.00268137 44136
SES-4                   
1 38087U 12007A   26166.18340823 -.00000164  00000+0  00000+0 0  9996
2 38087   0.0226  29.0397 0002642  70.8671 207.5944  1.00270340 52208
BEIDOU-2 G5             
1 38091U 12008A   26166.48451090  .00000058  00000+0  00000+0 0  9995
2 38091   3.5686  69.7030 0009129 272.7924 154.3492  1.00271354 52356
MUOS-1                  
1 38093U 12009A   26166.43800270 -.00000128  00000+0  00000+0 0  9990
2 38093   5.4726  47.1566 0058666   1.7160 272.5329  1.00270207 52426
INTELSAT 22 (IS-22)     
1 38098U 12011A   26166.48719757  .00000000  00000+0  00000+0 0  9990
2 38098   0.0420  54.7516 0001618  45.7856  50.7089  1.00271312  7176
APSTAR-7                
1 38107U 12013A   26166.48806425 -.00000099  00000+0  00000+0 0  9991
2 38107   0.0188  11.9569 0002557  81.9829  62.0289  1.00271632 51796
YAHSAT 1B               
1 38245U 12016A   26166.41108160  .00000130  00000+0  00000+0 0  9996
2 38245   0.0912  90.2305 0002339  12.0357 357.0093  1.00270046 45590
AEHF-2 (USA 235)        
1 38254U 12019A   26166.04166961 -.00000136  00000+0  00000+0 0  9998
2 38254   6.6459  57.5044 0002368  17.9364 186.3377  1.00269927  6960
JCSAT-13                
1 38331U 12023A   26166.49748814 -.00000354  00000+0  00000+0 0  9993
2 38331   0.0161  12.8662 0003010  99.4842  94.5224  1.00269261 51529
VINASAT-2               
1 38332U 12023B   26166.49904815 -.00000326  00000+0  00000+0 0  9998
2 38332   0.0176  16.2962 0002083  77.4966 121.5010  1.00271204 46640
NIMIQ 6                 
1 38342U 12026A   26166.45486498 -.00000171  00000+0  00000+0 0  9998
2 38342   0.0192 303.2482 0002436 140.4929 252.6453  1.00270368 50391
ZHONGXING-2A            
1 38352U 12028A   26166.49233380 -.00000291  00000+0  00000+0 0  9998
2 38352   1.4490  83.9002 0003761  45.6286  49.7341  1.00270791 51282
INTELSAT 19 (IS-19)     
1 38356U 12030A   26166.50878299 -.00000054  00000+0  00000+0 0  9998
2 38356   0.0175 351.2084 0002815 101.6438 160.0968  1.00270877 50436
ECHOSTAR 17             
1 38551U 12035A   26166.45165829  .00000000  00000+0  00000+0 0  9992
2 38551   0.0247  12.0514 0002146  73.4158 233.7706  1.00271238 51043
METEOSAT-10 (MSG-3)     
1 38552U 12035B   26166.33043115 -.00000004  00000+0  00000+0 0  9998
2 38552   4.6674  61.0286 0001436 327.6157 354.2543  1.00276454 50831
SES-5                   
1 38652U 12036A   26166.33129780  .00000037  00000+0  00000+0 0  9998
2 38652   0.0492 312.6758 0001778 132.0596 303.1274  1.00271212 44433
INTELSAT 20 (IS-20)     
1 38740U 12043A   26166.41515493 -.00000022  00000+0  00000+0 0  9998
2 38740   0.0037   7.9315 0001574 175.4865 298.2499  1.00272939 50733
HYLAS 2                 
1 38741U 12043B   26166.45850500 -.00000256  00000+0  00000+0 0  9993
2 38741   2.4230  81.0879 0002404  26.6839 248.4653  1.00269961 50756
