OBJECT_NAME,OBJECT_ID,EPOCH,MEAN_MOTION,ECCENTRICITY,INCLINATION,RA_OF_ASC_NODE,ARG_OF_PERICENTER,MEAN_ANOMALY,EPHEMERIS_TYPE,CLASSIFICATION_TYPE,NORAD_CAT_ID,ELEMENT_SET_NO,REV_AT_EPOCH,BSTAR,MEAN_MOTION_DOT,MEAN_MOTION_DDOT
ASTRA 1N,2011-041A,2026-06-15T08:01:03.748224,1.00270544,.0005992,0.0936,44.5742,50.2444,308.2647,0,U,37775,999,4450,0,.123E-5,0
BSAT-3C (JCSAT-110R),2011-041B,2026-06-15T11:52:18.820128,1.00271033,.0000051,0.0177,11.3150,199.0075,341.4931,0,U,37776,999,5045,0,-.348E-5,0
PAKSAT-1R,2011-042A,2026-06-15T04:41:12.331104,1.00265000,.0003233,0.6840,84.6155,335.5417,311.6958,0,U,37779,999,5445,0,.157E-5,0
SES-2,2011-049A,2026-06-15T10:56:07.726272,1.00270576,.0002614,0.0597,101.3702,342.1507,257.2520,0,U,37809,999,5394,0,-.193E-5,0
ARABSAT-5C,2011-049B,2026-06-15T08:01:18.723072,1.00270923,.0003401,0.0507,13.1201,88.8161,301.9994,0,U,37810,999,5401,0,.127E-5,0
EUTELSAT 7 WEST A,2011-051A,2026-06-15T09:36:13.957056,1.00271158,.0004014,0.0631,10.9232,85.1793,304.3181,0,U,37816,999,5385,0,-.57E-6,0
QUETZSAT 1,2011-054A,2026-06-15T10:58:59.949984,1.00270669,.0002496,0.0200,32.9592,53.5466,264.9909,0,U,37826,999,4985,0,-.239E-5,0
INTELSAT 18 (IS-18),2011-056A,2026-06-15T12:04:38.652960,1.00271138,.0001552,0.0133,300.2965,142.3543,182.2943,0,U,37834,999,5379,0,.55E-6,0
EUTELSAT 16A,2011-057A,2026-06-15T08:00:11.331072,1.00273576,.0005974,0.0455,15.6724,71.6876,312.3061,0,U,37836,999,731,0,.108E-5,0
VIASAT-1,2011-059A,2026-06-15T00:23:38.718240,1.00271822,.00020218,0.0175,336.5077,105.2509,72.3583,0,U,37843,999,4730,0,-.19E-6,0
ASIASAT 7,2011-069A,2026-06-15T10:08:25.869696,1.00272506,.0001198,0.0279,74.0232,340.8991,106.4069,0,U,37933,999,4484,0,-.331E-5,0
BEIDOU-2 IGSO-5,2011-073A,2026-06-14T23:32:12.407424,1.00273141,.01139,47.6824,271.5735,221.6334,214.8644,0,U,37948,999,5311,0,-.164E-5,0
LUCH-5A,2011-074B,2026-06-15T12:12:38.850336,1.00270016,.0002163,8.7499,73.8320,22.2945,157.7802,0,U,37951,999,5303,0,-.54E-6,0
NIGCOMSAT 1R,2011-077A,2026-06-15T06:25:05.196000,1.00268624,.0002714,0.0449,128.6600,219.4482,54.2192,0,U,38014,999,5293,0,.149E-5,0
WGS F4 (USA 233),2012-003A,2026-06-15T11:46:10.928064,1.00268137,.0000826,0.0237,14.9956,275.8846,237.8482,0,U,38070,999,4413,0,0,0
SES-4,2012-007A,2026-06-15T04:24:06.471072,1.00270340,.00026425,0.0226,29.0397,70.8671,207.5944,0,U,38087,999,5220,0,-.164E-5,0
BEIDOU-2 G5,2012-008A,2026-06-15T11:37:41.741760,1.00271354,.0009129,3.5686,69.7030,272.7924,154.3492,0,U,38091,999,5235,0,.58E-6,0
MUOS-1,2012-009A,2026-06-15T10:30:43.433280,1.00270207,.0058666,5.4726,47.1566,1.7160,272.5329,0,U,38093,999,5242,0,-.128E-5,0
INTELSAT 22 (IS-22),2012-011A,2026-06-15T11:41:33.870048,1.00271312,.0001618,0.0420,54.7516,45.7856,50.7089,0,U,38098,999,717,0,0,0
APSTAR-7,2012-013A,2026-06-15T11:42:48.751200,1.00271632,.0002557,0.0188,11.9569,81.9829,62.0289,0,U,38107,999,5179,0,-.99E-6,0
YAHSAT 1B,2012-016A,2026-06-15T09:51:57.450240,1.00270046,.0002339,0.0912,90.2305,12.0357,357.0093,0,U,38245,999,4559,0,.13E-5,0
AEHF-2 (USA 235),2012-019A,2026-06-15T01:00:00.254304,1.00269927,.0002368,6.6459,57.5044,17.9364,186.3377,0,U,38254,999,696,0,-.136E-5,0
JCSAT-13,2012-023A,2026-06-15T11:56:22.975296,1.00269261,.000301,0.0161,12.8662,99.4842,94.5224,0,U,38331,999,5152,0,-.354E-5,0
VINASAT-2,2012-023B,2026-06-15T11:58:37.760160,1.00271204,.0002083,0.0176,16.2962,77.4966,121.5010,0,U,38332,999,4664,0,-.326E-5,0
NIMIQ 6,2012-026A,2026-06-15T10:55:00.334272,1.00270368,.0002436,0.0192,303.2482,140.4929,252.6453,0,U,38342,999,5039,0,-.171E-5,0
ZHONGXING-2A,2012-028A,2026-06-15T11:48:57.640320,1.00270791,.0003761,1.4490,83.9002,45.6286,49.7341,0,U,38352,999,5128,0,-.291E-5,0
INTELSAT 19 (IS-19),2012-030A,2026-06-15T12:12:38.850336,1.00270877,.0002815,0.0175,351.2084,101.6438,160.0968,0,U,38356,999,5043,0,-.54E-6,0
ECHOSTAR 17,2012-035A,2026-06-15T10:50:23.276256,1.00271238,.0002146,0.0247,12.0514,73.4158,233.7706,0,U,38551,999,5104,0,0,0
METEOSAT-10 (MSG-3),2012-035B,2026-06-15T07:55:49.251360,1.00276454,.0001436,4.6674,61.0286,327.6157,354.2543,0,U,38552,999,5083,0,-.4E-7,0
SES-5,2012-036A,2026-06-15T07:57:04.129920,1.00271212,.0001778,0.0492,312.6758,132.0596,303.1274,0,U,38652,999,4443,0,.37E-6,0
INTELSAT 20 (IS-20),2012-043A,2026-06-15T09:57:49.385952,1.00272939,.0001574,0.0037,7.9315,175.4865,298.2499,0,U,38740,999,5073,0,-.22E-6,0
HYLAS 2,2012-043B,2026-06-15T11:00:14.832000,1.00269961,.0002404,2.4230,81.0879,26.6839,248.4653,0,U,38741,999,5075,0,-.256E-5,0
